0 ARIANE 42P+ DEB
1 34194U 92072AA  13279.19671805  .00037447  00000-0  18302-1 0  5503
2 34194 009.8132 198.7989 6208848 335.3593 004.4635 03.68856253134066
0 ARIANE 42P+ DEB
1 34194U 92072AA  13280.00997730  .00037336  00000-0  18413-1 0  5514
2 34194 009.8131 198.1954 6208013 336.5366 004.4369 03.68915328134092
0 ARIANE 42P+ DEB
1 34194U 92072AA  13285.15697410  .00038766  00000-0  19812-1 0  5531
2 34194 009.8117 194.4039 6204346 343.9489 002.9737 03.69273797134283
0 ARIANE 42P+ DEB
1 34194U 92072AA  13285.69847626  .00034226  00000-0  17577-1 0  5540
2 34194 009.8123 193.9832 6204118 344.7852 002.7330 03.69288955134307
0 ARIANE 42P+ DEB
1 34194U 92072AA  13286.24002139  .00036214  00000-0  19150-1 0  5553
2 34194 009.8178 193.5860 6202525 345.5343 002.8821 03.69345117134320
0 ARIANE 42P+ DEB
1 34194U 92072AA  13287.32257117  .00037621  00000-0  20174-1 0  5563
2 34194 009.8146 192.7888 6201333 347.0842 002.4687 03.69433547134368
0 ARIANE 42P+ DEB
1 34194U 92072AA  13287.59317127  .00037428  00000-0  20261-1 0  5573
2 34194 009.8130 192.5877 6200800 347.4683 002.3636 03.69452835134377
0 ARIANE 42P+ DEB
1 34194U 92072AA  13292.19153583  .00050862  00000-0  27966-1 0  5586
2 34194 009.8078 189.1859 6196822 354.1302 001.5012 03.69881105134545
0 ARIANE 42P+ DEB
1 34194U 92072AA  13293.00211316  .00040631  00000-0  22400-1 0  5598
2 34194 009.8088 188.5111 6196564 355.3539 000.7851 03.69898294134570
